[{"OBJECT_NAME":"YUNHAI-2 02B","OBJECT_ID":"2024-052B","EPOCH":"2026-03-09T23:36:35.688096","MEAN_MOTION":14.27934606,"ECCENTRICITY":0.00049008,"INCLINATION":50.0096,"RA_OF_ASC_NODE":82.8635,"ARG_OF_PERICENTER":204.1561,"MEAN_ANOMALY":155.9125,"EPHEMERIS_TYPE":0,"CLASSIFICATION_TYPE":"U","NORAD_CAT_ID":59281,"ELEMENT_SET_NO":999,"REV_AT_EPOCH":10243,"BSTAR":0.00011696599,"MEAN_MOTION_DOT":1.31e-6,"MEAN_MOTION_DDOT":0},{"OBJECT_NAME":"IRIDIUM 33 DEB","OBJECT_ID":"1997-051GN","EPOCH":"2026-03-09T07:13:54.460992","MEAN_MOTION":14.277841,"ECCENTRICITY":0.00819651,"INCLINATION":86.282,"RA_OF_ASC_NODE":15.4051,"ARG_OF_PERICENTER":59.9722,"MEAN_ANOMALY":92.7588,"EPHEMERIS_TYPE":0,"CLASSIFICATION_TYPE":"U","NORAD_CAT_ID":34497,"ELEMENT_SET_NO":999,"REV_AT_EPOCH":88118,"BSTAR":0.0010149652,"MEAN_MOTION_DOT":2.617e-5,"MEAN_MOTION_DDOT":0}]
